[{"OBJECT_NAME":"DONGPO 08","OBJECT_ID":"2022-167E","EPOCH":"2026-03-09T22:57:52.742880","MEAN_MOTION":15.31542505,"ECCENTRICITY":0.00092155,"INCLINATION":97.6764,"RA_OF_ASC_NODE":233.3854,"ARG_OF_PERICENTER":153.9158,"MEAN_ANOMALY":206.2548,"EPHEMERIS_TYPE":0,"CLASSIFICATION_TYPE":"U","NORAD_CAT_ID":54686,"ELEMENT_SET_NO":999,"REV_AT_EPOCH":18012,"BSTAR":0.0004734784,"MEAN_MOTION_DOT":0.0001437,"MEAN_MOTION_DDOT":0},{"OBJECT_NAME":"STARLINK-31926","OBJECT_ID":"2024-098X","EPOCH":"2026-03-09T22:57:39.076128","MEAN_MOTION":15.27769593,"ECCENTRICITY":0.00012547,"INCLINATION":42.999,"RA_OF_ASC_NODE":265.9804,"ARG_OF_PERICENTER":279.3622,"MEAN_ANOMALY":80.7088,"EPHEMERIS_TYPE":0,"CLASSIFICATION_TYPE":"U","NORAD_CAT_ID":59879,"ELEMENT_SET_NO":999,"REV_AT_EPOCH":10200,"BSTAR":0.0003654505,"MEAN_MOTION_DOT":9.866e-5,"MEAN_MOTION_DDOT":0}]
